METEOR-M2 2             
1 44387U 19038A   26185.59544626  .00000094  00000+0  60393-4 0  9997
2 44387  98.9153 173.1384 0001313  22.1302 337.9932 14.24370321363777
ICEYE-X4                
1 44390U 19038D   26185.60054142  .00019769  00000+0  68756-3 0  9991
2 44390  97.8747 219.5403 0011882 237.4121 122.5971 15.29695841384460
MOMENTUS-X1             
1 44408U 19038Y   26184.71244620  .00050405  00000+0  45268-3 0  9999
2 44408  97.6733 231.6252 0005202 306.8672  53.2111 15.68113374389146
COSMOS 2538             
1 44424U 19039D   26185.60820367  .00009127  00000+0  40630-3 0  9998
2 44424  97.5873 265.1261 0041159 345.9060  14.1023 15.20924707382550
YAOGAN-30 06A           
1 44449U 19045A   26185.58056622  .00002229  00000+0  16542-3 0  9995
2 44449  34.9923 224.0759 0003058  65.2838 294.8188 15.02775603379234
YAOGAN-30 06B           
1 44450U 19045B   26185.55806341  .00003008  00000+0  22224-3 0  9995
2 44450  34.9912 223.7426 0009036 229.1652 130.8273 15.02779580379274
YAOGAN-30 06C           
1 44451U 19045C   26185.53493675  .00002879  00000+0  21307-3 0  9992
2 44451  34.9923 223.7712 0000649 234.0834 125.9814 15.02766467379167
MERIDIAN 8              
1 44453U 19046A   26184.17035897 -.00000016  00000+0  00000+0 0  9997
2 44453  63.1493  48.6931 7079920 274.9135  14.6170  2.00597614 50664
COSMOS 2539             
1 44457U 19048A   26185.50964838  .00000093  00000+0  00000+0 0  9991
2 44457   0.0344  99.8054 0000683  39.1271 339.0468  1.00268979 25408
EDRS-C                  
1 44475U 19049A   26183.85674118  .00000000  00000+0  00000+0 0  9995
2 44475   0.0148  64.7290 0001209  52.5943 254.5290  1.00271418 25364
INTELSAT 39 (IS-39)     
1 44476U 19049B   26183.86988079  .00000000  00000+0  00000+0 0  9991
2 44476   0.0212  29.7717 0000592 309.6573 316.5859  1.00268633 25287
AMOS-17                 
1 44479U 19050A   26184.58399475  .00000121  00000+0  00000+0 0  9996
2 44479   0.0327 305.7762 0002505 191.5214  11.5704  1.00274444 25356
AEHF-5 (USA 292)        
1 44481U 19051A   26185.59695537 -.00000244  00000+0  00000+0 0  9997
2 44481   1.4388 337.4888 0065515 359.0599 254.0083  1.00268589 25435
BRO-1                   
1 44495U 19054A   26185.42881837  .00681202  22145-3  11886-2 0  9990
2 44495  44.9862 185.1747 0009787  83.1782 277.0242 16.01297204382496
GLOBAL-4                
1 44499U 19054E   26185.56493865  .00106521  00000+0  10028-2 0  9994
2 44499  45.0044 136.0113 0003934 113.4500 246.6811 15.66079115383088
NAVSTAR 78 (USA 293)    
1 44506U 19056A   26184.83930113 -.00000073  00000+0  00000+0 0  9998
2 44506  55.6284 330.4819 0062878 197.8968 333.5224  2.00570148 50406
COSMOS 2540             
1 44517U 19057A   26185.58889157  .00000059  00000+0  89655-4 0  9996
2 44517  99.2050 196.8468 0016583 122.3314 237.9451 13.85950833346288
KX-09                   
1 44520U 19058B   26185.63486194  .00001178  00000+0  10829-3 0  9990
2 44520  97.7752 198.8343 0009073 288.9176  71.1061 14.96705710372648
ZY-1 02D                
1 44528U 19059A   26185.63555755  .00000379  00000+0  14819-3 0  9994
2 44528  98.6714 247.1403 0003662 338.4454  21.6576 14.35267002356842
BNU-1 (JINGSHI 1)       
1 44529U 19059B   26185.63031729  .00000435  00000+0  12855-3 0  9996
2 44529  98.6092 315.0412 0012429 325.2899  34.7482 14.48401511359512
TAURUS-1 (JINNIUZUO 1)  
1 44530U 19059C   26185.57427788  .00006780  00000+0  10809-2 0  9990
2 44530  98.6434 351.4838 0007373 252.7127 107.3272 14.72281845361206
ZHUHAI-1 03B            
1 44536U 19060C   26185.62734623  .00054801  00000+0  81006-3 0  9998
2 44536  97.5550 344.3477 0007756 246.0759 113.9682 15.55120683379033
ZHUHAI-1 03D            
1 44538U 19060E   26185.58728845  .00057150  00000+0  98615-3 0  9998
2 44538  97.5402 336.2750 0006909 231.2366 128.8268 15.50811022378778
ZHUHAI-1 03E            
1 44539U 19060F   26185.57742703  .00032805  00000+0  77823-3 0  9995
2 44539  97.5637 336.1359 0004665 325.2446  34.8495 15.41647785378448
BEIDOU-3 M24            
1 44542U 19061A   26184.88799961  .00000088  00000+0  00000+0 0  9998
2 44542  54.3971 182.1644 0008559 358.8383   1.1607  1.86229357 46100
BEIDOU-3 M23            
1 44543U 19061B   26184.46290774  .00000084  00000+0  00000+0 0  9997
2 44543  54.3962 182.1475 0005841 339.4120   7.0782  1.86227531 46097
YUNHAI-1 02             
1 44547U 19063A   26185.59139199  .00000410  00000+0  16618-3 0  9990
2 44547  98.4119 195.5347 0007064 101.3463 258.8516 14.32716238354360
COSMOS 2541             
1 44552U 19065A   26185.21962551  .00000224  00000+0  00000+0 0  9990
2 44552  62.7150 155.3704 6494470 272.1012  20.3271  2.00603319 49560
GAOFEN-10R              
1 44622U 19066A   26185.62858976  .00001512  00000+0  19258-3 0  9999
2 44622  98.0504 139.3351 0007196  80.2597 279.9428 14.83040917364961
EUTELSAT 5 WEST B       
1 44624U 19067A   26185.57766866 -.00000030  00000+0  00000+0 0  9998
2 44624   0.0682 334.3331 0003319 129.4016  21.8114  1.00271470 24619
MEV-1                   
1 44625U 19067B   26167.92963140 -.00000149  00000+0  00000+0 0  9993
2 44625   0.8740 268.9828 0002794 179.8034 307.2103  1.00269616 61744
