OBJECT_NAME,OBJECT_ID,EPOCH,MEAN_MOTION,ECCENTRICITY,INCLINATION,RA_OF_ASC_NODE,ARG_OF_PERICENTER,MEAN_ANOMALY,EPHEMERIS_TYPE,CLASSIFICATION_TYPE,NORAD_CAT_ID,ELEMENT_SET_NO,REV_AT_EPOCH,BSTAR,MEAN_MOTION_DOT,MEAN_MOTION_DDOT
METEOR-M2 2,2019-038A,2026-07-04T14:17:26.556864,14.24370321,.00013135,98.9153,173.1384,22.1302,337.9932,0,U,44387,999,36377,.60392957E-4,.94E-6,0
ICEYE-X4,2019-038D,2026-07-04T14:24:46.778688,15.29695841,.00118828,97.8747,219.5403,237.4121,122.5971,0,U,44390,999,38446,.68755558E-3,.19769E-3,0
MOMENTUS-X1,2019-038Y,2026-07-03T17:05:55.351680,15.68113374,.00052021,97.6733,231.6252,306.8672,53.2111,0,U,44408,999,38914,.45268308E-3,.50405E-3,0
COSMOS 2538,2019-039D,2026-07-04T14:35:48.797088,15.20924707,.00411596,97.5873,265.1261,345.9060,14.1023,0,U,44424,999,38255,.40629718E-3,.9127E-4,0
YAOGAN-30 06A,2019-045A,2026-07-04T13:56:00.921408,15.02775603,.00030589,34.9923,224.0759,65.2838,294.8188,0,U,44449,999,37923,.16541857E-3,.2229E-4,0
YAOGAN-30 06B,2019-045B,2026-07-04T13:23:36.678624,15.02779580,.00090362,34.9912,223.7426,229.1652,130.8273,0,U,44450,999,37927,.22223774E-3,.3008E-4,0
YAOGAN-30 06C,2019-045C,2026-07-04T12:50:18.535200,15.02766467,.00006497,34.9923,223.7712,234.0834,125.9814,0,U,44451,999,37916,.21306586E-3,.2879E-4,0
MERIDIAN 8,2019-046A,2026-07-03T04:05:19.015008,2.00597614,.707992,63.1493,48.6931,274.9135,14.6170,0,U,44453,999,5066,0,-.16E-6,0
COSMOS 2539,2019-048A,2026-07-04T12:13:53.620032,1.00268979,.00006833,0.0344,99.8054,39.1271,339.0468,0,U,44457,999,2540,0,.93E-6,0
EDRS-C,2019-049A,2026-07-02T20:33:42.437952,1.00271418,.00012097,0.0148,64.7290,52.5943,254.5290,0,U,44475,999,2536,0,0,0
INTELSAT 39 (IS-39),2019-049B,2026-07-02T20:52:37.700256,1.00268633,.00005929,0.0212,29.7717,309.6573,316.5859,0,U,44476,999,2528,0,0,0
AMOS-17,2019-050A,2026-07-03T14:00:57.146400,1.00274444,.00025058,0.0327,305.7762,191.5214,11.5704,0,U,44479,999,2535,0,.121E-5,0
AEHF-5 (USA 292),2019-051A,2026-07-04T14:19:36.943968,1.00268589,.00655159,1.4388,337.4888,359.0599,254.0083,0,U,44481,999,2543,0,-.244E-5,0
BRO-1,2019-054A,2026-07-04T10:17:29.907168,16.01297204,.00097879,44.9862,185.1747,83.1782,277.0242,0,U,44495,999,38249,.11886265E-2,.681202E-2,.22144642E-3
GLOBAL-4,2019-054E,2026-07-04T13:33:30.699360,15.66079115,.00039348,45.0044,136.0113,113.4500,246.6811,0,U,44499,999,38308,.10028234E-2,.106521E-2,0
NAVSTAR 78 (USA 293),2019-056A,2026-07-03T20:08:35.617632,2.00570148,.00628784,55.6284,330.4819,197.8968,333.5224,0,U,44506,999,5040,0,-.73E-6,0
COSMOS 2540,2019-057A,2026-07-04T14:08:00.231648,13.85950833,.00165838,99.2050,196.8468,122.3314,237.9451,0,U,44517,999,34628,.89655452E-4,.59E-6,0
KX-09,2019-058B,2026-07-04T15:14:12.071616,14.96705710,.00090739,97.7752,198.8343,288.9176,71.1061,0,U,44520,999,37264,.10829174E-3,.1178E-4,0
ZY-1 02D,2019-059A,2026-07-04T15:15:12.172320,14.35267002,.00036628,98.6714,247.1403,338.4454,21.6576,0,U,44528,999,35684,.14818628E-3,.379E-5,0
BNU-1 (JINGSHI 1),2019-059B,2026-07-04T15:07:39.413856,14.48401511,.00124298,98.6092,315.0412,325.2899,34.7482,0,U,44529,999,35951,.12854507E-3,.435E-5,0
TAURUS-1 (JINNIUZUO 1),2019-059C,2026-07-04T13:46:57.608832,14.72281845,.0007373,98.6434,351.4838,252.7127,107.3272,0,U,44530,999,36120,.10808504E-2,.678E-4,0
ZHUHAI-1 03B,2019-060C,2026-07-04T15:03:22.714272,15.55120683,.00077565,97.5550,344.3477,246.0759,113.9682,0,U,44536,999,37903,.81005979E-3,.54801E-3,0
ZHUHAI-1 03D,2019-060E,2026-07-04T14:05:41.722080,15.50811022,.00069094,97.5402,336.2750,231.2366,128.8268,0,U,44538,999,37877,.98614543E-3,.5715E-3,0
ZHUHAI-1 03E,2019-060F,2026-07-04T13:51:29.695392,15.41647785,.0004665,97.5637,336.1359,325.2446,34.8495,0,U,44539,999,37844,.77822628E-3,.32805E-3,0
BEIDOU-3 M24,2019-061A,2026-07-03T21:18:43.166304,1.86229357,.00085599,54.3971,182.1644,358.8383,1.1607,0,U,44542,999,4610,0,.88E-6,0
BEIDOU-3 M23,2019-061B,2026-07-03T11:06:35.228736,1.86227531,.00058418,54.3962,182.1475,339.4120,7.0782,0,U,44543,999,4609,0,.84E-6,0
YUNHAI-1 02,2019-063A,2026-07-04T14:11:36.267936,14.32716238,.00070643,98.4119,195.5347,101.3463,258.8516,0,U,44547,999,35436,.16618111E-3,.41E-5,0
COSMOS 2541,2019-065A,2026-07-04T05:16:15.644064,2.00603319,.64944707,62.7150,155.3704,272.1012,20.3271,0,U,44552,999,4956,0,.224E-5,0
GAOFEN-10R,2019-066A,2026-07-04T15:05:10.155264,14.83040917,.00071961,98.0504,139.3351,80.2597,279.9428,0,U,44622,999,36496,.19258066E-3,.1512E-4,0
EUTELSAT 5 WEST B,2019-067A,2026-07-04T13:51:50.572224,1.00271470,.00033194,0.0682,334.3331,129.4016,21.8114,0,U,44624,999,2461,0,-.3E-6,0
MEV-1,2019-067B,2026-06-16T22:18:40.152960,1.00269616,.00027946,0.8740,268.9828,179.8034,307.2103,0,U,44625,999,6174,0,-.149E-5,0
